{
  "type": "FeatureCollection",
  "features": [
    {
      "type": "Feature",
      "properties": {
        "norad_id": 29961,
        "name": "FENGYUN 1C DEB",
        "group": "fengyun-1c-debris",
        "lat": 29.754943791968298,
        "lon": -126.38726694641484,
        "alt_km": 810.4356193663807,
        "timestamp": "2025-12-17T07:00:47.176592+00:00",
        "meta_object_name": "FENGYUN 1C DEB",
        "meta_object_id": "1999-025KK",
        "meta_epoch": "2025-12-16T15:43:08.289120",
        "meta_mean_motion": 14.26218566,
        "meta_eccentricity": 0.00739889,
        "meta_inclination": 98.9484,
        "meta_ra_of_asc_node": 238.1297,
        "meta_arg_of_pericenter": 293.4675,
        "meta_mean_anomaly": 65.8739,
        "meta_ephemeris_type": 0,
        "meta_classification_type": "U",
        "meta_norad_cat_id": 29961,
        "meta_element_set_no": 999,
        "meta_rev_at_epoch": 98365,
        "meta_bstar": 0.00017745744,
        "meta_mean_motion_dot": 3.91e-06,
        "meta_mean_motion_ddot": 0,
        "tle_line1": "1 29961U 99025KK  25350.65495705  .00000391  00000+0  17746-3 0  9998",
        "tle_line2": "2 29961  98.9484 238.1297 0073988 293.4675  65.8739 14.26218566983654"
      },
      "geometry": {
        "type": "Point",
        "coordinates": [
          -126.38726694641484,
          29.754943791968298
        ]
      }
    },
    {
      "type": "Feature",
      "properties": {
        "norad_id": 29962,
        "name": "FENGYUN 1C DEB",
        "group": "fengyun-1c-debris",
        "lat": -68.4530282969413,
        "lon": 156.3214716618309,
        "alt_km": 816.6214931219274,
        "timestamp": "2025-12-17T07:00:47.176602+00:00",
        "meta_object_name": "FENGYUN 1C DEB",
        "meta_object_id": "1999-025KL",
        "meta_epoch": "2025-12-16T23:17:45.182112",
        "meta_mean_motion": 14.07160191,
        "meta_eccentricity": 0.01098985,
        "meta_inclination": 98.7683,
        "meta_ra_of_asc_node": 359.0183,
        "meta_arg_of_pericenter": 209.2426,
        "meta_mean_anomaly": 212.1211,
        "meta_ephemeris_type": 0,
        "meta_classification_type": "U",
        "meta_norad_cat_id": 29962,
        "meta_element_set_no": 999,
        "meta_rev_at_epoch": 97057,
        "meta_bstar": 0.00028247085,
        "meta_mean_motion_dot": 4.57e-06,
        "meta_mean_motion_ddot": 0,
        "tle_line1": "1 29962U 99025KL  25350.97066183  .00000457  00000+0  28247-3 0  9999",
        "tle_line2": "2 29962  98.7683 359.0183 0109898 209.2426 212.1211 14.07160191970578"
      },
      "geometry": {
        "type": "Point",
        "coordinates": [
          156.3214716618309,
          -68.4530282969413
        ]
      }
    },
    {
      "type": "Feature",
      "properties": {
        "norad_id": 29963,
        "name": "FENGYUN 1C DEB",
        "group": "fengyun-1c-debris",
        "lat": 77.64017529780908,
        "lon": -170.91197412245734,
        "alt_km": 818.7635537532733,
        "timestamp": "2025-12-17T07:00:47.176612+00:00",
        "meta_object_name": "FENGYUN 1C DEB",
        "meta_object_id": "1999-025KM",
        "meta_epoch": "2025-12-16T15:46:12.366912",
        "meta_mean_motion": 14.29475084,
        "meta_eccentricity": 0.0051299,
        "meta_inclination": 98.9986,
        "meta_ra_of_asc_node": 234.7467,
        "meta_arg_of_pericenter": 290.8521,
        "meta_mean_anomaly": 123.8053,
        "meta_ephemeris_type": 0,
        "meta_classification_type": "U",
        "meta_norad_cat_id": 29963,
        "meta_element_set_no": 999,
        "meta_rev_at_epoch": 98199,
        "meta_bstar": 0.00055859421,
        "meta_mean_motion_dot": 1.399e-05,
        "meta_mean_motion_ddot": 0,
        "tle_line1": "1 29963U 99025KM  25350.65708758  .00001399  00000+0  55859-3 0  9991",
        "tle_line2": "2 29963  98.9986 234.7467 0051299 290.8521 123.8053 14.29475084981998"
      },
      "geometry": {
        "type": "Point",
        "coordinates": [
          -170.91197412245734,
          77.64017529780908
        ]
      }
    },
    {
      "type": "Feature",
      "properties": {
        "norad_id": 29964,
        "name": "FENGYUN 1C DEB",
        "group": "fengyun-1c-debris",
        "lat": -74.89379477249516,
        "lon": -19.621782584227034,
        "alt_km": 796.6184068881021,
        "timestamp": "2025-12-17T07:00:47.176623+00:00",
        "meta_object_name": "FENGYUN 1C DEB",
        "meta_object_id": "1999-025KN",
        "meta_epoch": "2025-12-16T12:39:51.031872",
        "meta_mean_motion": 14.0275223,
        "meta_eccentricity": 0.01307466,
        "meta_inclination": 98.3709,
        "meta_ra_of_asc_node": 192.7313,
        "meta_arg_of_pericenter": 258.7598,
        "meta_mean_anomaly": 99.8851,
        "meta_ephemeris_type": 0,
        "meta_classification_type": "U",
        "meta_norad_cat_id": 29964,
        "meta_element_set_no": 999,
        "meta_rev_at_epoch": 96370,
        "meta_bstar": 0.00071430676,
        "meta_mean_motion_dot": 1.15e-05,
        "meta_mean_motion_ddot": 0,
        "tle_line1": "1 29964U 99025KN  25350.52767398  .00001150  00000+0  71431-3 0  9992",
        "tle_line2": "2 29964  98.3709 192.7313 0130746 258.7598  99.8851 14.02752230963700"
      },
      "geometry": {
        "type": "Point",
        "coordinates": [
          -19.621782584227034,
          -74.89379477249516
        ]
      }
    },
    {
      "type": "Feature",
      "properties": {
        "norad_id": 29965,
        "name": "FENGYUN 1C DEB",
        "group": "fengyun-1c-debris",
        "lat": -71.1160555379277,
        "lon": 138.32541083317554,
        "alt_km": 1016.9023969413629,
        "timestamp": "2025-12-17T07:00:47.176633+00:00",
        "meta_object_name": "FENGYUN 1C DEB",
        "meta_object_id": "1999-025KP",
        "meta_epoch": "2025-12-16T23:10:48.188928",
        "meta_mean_motion": 13.95777762,
        "meta_eccentricity": 0.01459686,
        "meta_inclination": 98.9626,
        "meta_ra_of_asc_node": 345.4826,
        "meta_arg_of_pericenter": 56.4634,
        "meta_mean_anomaly": 358.2438,
        "meta_ephemeris_type": 0,
        "meta_classification_type": "U",
        "meta_norad_cat_id": 29965,
        "meta_element_set_no": 999,
        "meta_rev_at_epoch": 96335,
        "meta_bstar": 4.7064242e-05,
        "meta_mean_motion_dot": 2.8e-07,
        "meta_mean_motion_ddot": 0,
        "tle_line1": "1 29965U 99025KP  25350.96583552  .00000028  00000+0  47064-4 0  9998",
        "tle_line2": "2 29965  98.9626 345.4826 0145968  56.4634 358.2438 13.95777762963359"
      },
      "geometry": {
        "type": "Point",
        "coordinates": [
          138.32541083317554,
          -71.1160555379277
        ]
      }
    },
    {
      "type": "Feature",
      "properties": {
        "norad_id": 29966,
        "name": "FENGYUN 1C DEB",
        "group": "fengyun-1c-debris",
        "lat": -47.6898131015315,
        "lon": 8.037543575745294,
        "alt_km": 819.4625393462247,
        "timestamp": "2025-12-17T07:00:47.176644+00:00",
        "meta_object_name": "FENGYUN 1C DEB",
        "meta_object_id": "1999-025KQ",
        "meta_epoch": "2025-12-16T19:50:10.435488",
        "meta_mean_motion": 14.25759968,
        "meta_eccentricity": 0.00394929,
        "meta_inclination": 99.4912,
        "meta_ra_of_asc_node": 198.1241,
        "meta_arg_of_pericenter": 333.8303,
        "meta_mean_anomaly": 26.0878,
        "meta_ephemeris_type": 0,
        "meta_classification_type": "U",
        "meta_norad_cat_id": 29966,
        "meta_element_set_no": 999,
        "meta_rev_at_epoch": 98101,
        "meta_bstar": 0.00034897397,
        "meta_mean_motion_dot": 7.84e-06,
        "meta_mean_motion_ddot": 0,
        "tle_line1": "1 29966U 99025KQ  25350.82650967  .00000784  00000+0  34897-3 0  9997",
        "tle_line2": "2 29966  99.4912 198.1241 0039492 333.8303  26.0878 14.25759968981010"
      },
      "geometry": {
        "type": "Point",
        "coordinates": [
          8.037543575745294,
          -47.6898131015315
        ]
      }
    },
    {
      "type": "Feature",
      "properties": {
        "norad_id": 29967,
        "name": "FENGYUN 1C DEB",
        "group": "fengyun-1c-debris",
        "lat": 8.782251270719778,
        "lon": 66.55122769617702,
        "alt_km": 814.1604902138197,
        "timestamp": "2025-12-17T07:00:47.176655+00:00",
        "meta_object_name": "FENGYUN 1C DEB",
        "meta_object_id": "1999-025KR",
        "meta_epoch": "2025-12-15T04:30:03.298752",
        "meta_mean_motion": 14.23610689,
        "meta_eccentricity": 0.00760822,
        "meta_inclination": 98.8656,
        "meta_ra_of_asc_node": 65.8123,
        "meta_arg_of_pericenter": 285.3371,
        "meta_mean_anomaly": 102.3694,
        "meta_ephemeris_type": 0,
        "meta_classification_type": "U",
        "meta_norad_cat_id": 29967,
        "meta_element_set_no": 999,
        "meta_rev_at_epoch": 97257,
        "meta_bstar": 0.0011499099,
        "meta_mean_motion_dot": 2.654e-05,
        "meta_mean_motion_ddot": 0,
        "tle_line1": "1 29967U 99025KR  25349.18753818  .00002654  00000+0  11499-2 0  9994",
        "tle_line2": "2 29967  98.8656  65.8123 0076082 285.3371 102.3694 14.23610689972579"
      },
      "geometry": {
        "type": "Point",
        "coordinates": [
          66.55122769617702,
          8.782251270719778
        ]
      }
    }
  ]
}